0 FENGYUN 1C DEB
1 31959U 99025CNL 13281.02060739  .00002379  00000-0  13424-2 0  3344
2 31959 098.6769 196.0180 0048059 092.7526 267.9187 14.10604982334551
0 FENGYUN 1C DEB
1 31959U 99025CNL 13283.00667403  .00002439  00000-0  13757-2 0  3352
2 31959 098.6788 197.9352 0047911 088.6096 272.0829 14.10615538334835
0 FENGYUN 1C DEB
1 31959U 99025CNL 13289.53219628  .00002903  00000-0  16299-2 0  3370
2 31959 098.6810 204.2441 0049852 072.5720 288.1726 14.10657341335758
0 FENGYUN 1C DEB
1 31959U 99025CNL 13291.02166780  .00003030  00000-0  17006-2 0  3387
2 31959 098.6767 205.6759 0049168 065.7233 294.9063 14.10668546335960
0 FENGYUN 1C DEB
1 31959U 99025CNL 13292.58207531  .00003359  00000-0  18830-2 0  3390
2 31959 098.6771 207.1786 0047691 062.5357 298.1388 14.10683066336188
0 FENGYUN 1C DEB
1 31959U 99025CNL 13294.56800637  .00003499  00000-0  19600-2 0  3409
2 31959 098.6764 209.0911 0047678 058.0646 302.5205 14.10698682336466
